{"fetched_at":"2026-07-14T06:34:51.094Z","source":"https://celestrak.org/NORAD/elements/gp.php?NAME=JILIN&FORMAT=JSON","constellation":"jilin-1-early","records":[{"OBJECT_NAME":"JILIN-1","OBJECT_ID":"2015-057D","EPOCH":"2026-07-13T21:17:21.890688","CLASSIFICATION_TYPE":"U","MEAN_MOTION":14.78200262,"ECCENTRICITY":0.0017097,"INCLINATION":97.6519,"RA_OF_ASC_NODE":192.9297,"ARG_OF_PERICENTER":171.0984,"MEAN_ANOMALY":189.0534,"EPHEMERIS_TYPE":0,"NORAD_CAT_ID":40961,"ELEMENT_SET_NO":999,"REV_AT_EPOCH":57955,"BSTAR":0.000062804,"MEAN_MOTION_DOT":0.00000408,"MEAN_MOTION_DDOT":0},{"OBJECT_NAME":"JILIN-1 03","OBJECT_ID":"2017-002B","EPOCH":"2026-07-13T19:53:10.301280","CLASSIFICATION_TYPE":"U","MEAN_MOTION":15.42209121,"ECCENTRICITY":0.0007918,"INCLINATION":97.1945,"RA_OF_ASC_NODE":201.5489,"ARG_OF_PERICENTER":83.0505,"MEAN_ANOMALY":277.1643,"EPHEMERIS_TYPE":0,"NORAD_CAT_ID":41914,"ELEMENT_SET_NO":999,"REV_AT_EPOCH":52596,"BSTAR":0.00019667,"MEAN_MOTION_DOT":0.00008366,"MEAN_MOTION_DDOT":0},{"OBJECT_NAME":"JILIN-1 04","OBJECT_ID":"2017-074A","EPOCH":"2026-07-13T19:24:22.145760","CLASSIFICATION_TYPE":"U","MEAN_MOTION":15.43106496,"ECCENTRICITY":0.0005274,"INCLINATION":97.4879,"RA_OF_ASC_NODE":305.1453,"ARG_OF_PERICENTER":104.1043,"MEAN_ANOMALY":256.0791,"EPHEMERIS_TYPE":0,"NORAD_CAT_ID":43022,"ELEMENT_SET_NO":999,"REV_AT_EPOCH":47837,"BSTAR":0.0001936,"MEAN_MOTION_DOT":0.00008476,"MEAN_MOTION_DDOT":0},{"OBJECT_NAME":"JILIN-1 05","OBJECT_ID":"2017-074B","EPOCH":"2026-07-13T20:44:59.557344","CLASSIFICATION_TYPE":"U","MEAN_MOTION":15.34272291,"ECCENTRICITY":0.0006403,"INCLINATION":97.4884,"RA_OF_ASC_NODE":301.3883,"ARG_OF_PERICENTER":128.2844,"MEAN_ANOMALY":231.8976,"EPHEMERIS_TYPE":0,"NORAD_CAT_ID":43023,"ELEMENT_SET_NO":999,"REV_AT_EPOCH":47809,"BSTAR":0.00015397,"MEAN_MOTION_DOT":0.00005029,"MEAN_MOTION_DDOT":0},{"OBJECT_NAME":"JILIN-1 06","OBJECT_ID":"2017-074C","EPOCH":"2026-07-13T20:09:56.024928","CLASSIFICATION_TYPE":"U","MEAN_MOTION":15.33986441,"ECCENTRICITY":0.0008011,"INCLINATION":97.4809,"RA_OF_ASC_NODE":298.3376,"ARG_OF_PERICENTER":138.1847,"MEAN_ANOMALY":222.0009,"EPHEMERIS_TYPE":0,"NORAD_CAT_ID":43024,"ELEMENT_SET_NO":999,"REV_AT_EPOCH":47792,"BSTAR":0.00011124,"MEAN_MOTION_DOT":0.00003578,"MEAN_MOTION_DDOT":0},{"OBJECT_NAME":"JILIN-1 07","OBJECT_ID":"2018-008E","EPOCH":"2026-07-13T19:42:52.452288","CLASSIFICATION_TYPE":"U","MEAN_MOTION":15.35150226,"ECCENTRICITY":0.0006869,"INCLINATION":97.1764,"RA_OF_ASC_NODE":214.046,"ARG_OF_PERICENTER":333.9945,"MEAN_ANOMALY":26.0953,"EPHEMERIS_TYPE":0,"NORAD_CAT_ID":43159,"ELEMENT_SET_NO":999,"REV_AT_EPOCH":46908,"BSTAR":0.00015892,"MEAN_MOTION_DOT":0.00005347,"MEAN_MOTION_DDOT":0},{"OBJECT_NAME":"JILIN-1 08","OBJECT_ID":"2018-008F","EPOCH":"2026-07-13T20:10:14.683872","CLASSIFICATION_TYPE":"U","MEAN_MOTION":15.3400073,"ECCENTRICITY":0.0005476,"INCLINATION":97.18,"RA_OF_ASC_NODE":213.3509,"ARG_OF_PERICENTER":357.9141,"MEAN_ANOMALY":2.2078,"EPHEMERIS_TYPE":0,"NORAD_CAT_ID":43160,"ELEMENT_SET_NO":999,"REV_AT_EPOCH":46903,"BSTAR":0.00011271,"MEAN_MOTION_DOT":0.00003632,"MEAN_MOTION_DDOT":0},{"OBJECT_NAME":"JILIN-1 09","OBJECT_ID":"2019-005B","EPOCH":"2026-07-13T19:56:17.536128","CLASSIFICATION_TYPE":"U","MEAN_MOTION":15.20734174,"ECCENTRICITY":0.0002453,"INCLINATION":97.4749,"RA_OF_ASC_NODE":289.5699,"ARG_OF_PERICENTER":39.6247,"MEAN_ANOMALY":320.5167,"EPHEMERIS_TYPE":0,"NORAD_CAT_ID":43943,"ELEMENT_SET_NO":999,"REV_AT_EPOCH":41319,"BSTAR":0.00011844,"MEAN_MOTION_DOT":0.00002536,"MEAN_MOTION_DDOT":0},{"OBJECT_NAME":"JILIN-1 10","OBJECT_ID":"2019-005E","EPOCH":"2026-07-13T19:36:41.023008","CLASSIFICATION_TYPE":"U","MEAN_MOTION":15.25997779,"ECCENTRICITY":0.0008458,"INCLINATION":97.48,"RA_OF_ASC_NODE":293.6271,"ARG_OF_PERICENTER":174.3122,"MEAN_ANOMALY":185.8214,"EPHEMERIS_TYPE":0,"NORAD_CAT_ID":43946,"ELEMENT_SET_NO":999,"REV_AT_EPOCH":41337,"BSTAR":0.00014005,"MEAN_MOTION_DOT":0.00003529,"MEAN_MOTION_DDOT":0}]}
