JILIN-1                 
1 40961U 15057D   26194.88705892  .00000408  00000+0  62804-4 0  9992
2 40961  97.6519 192.9297 0017097 171.0984 189.0534 14.78200262579555
JILIN-1 03              
1 41914U 17002B   26194.82859145  .00008366  00000+0  19667-3 0  9997
2 41914  97.1945 201.5489 0007918  83.0505 277.1643 15.42209121525965
JILIN-1 04              
1 43022U 17074A   26194.80858965  .00008476  00000+0  19360-3 0  9997
2 43022  97.4879 305.1453 0005274 104.1043 256.0791 15.43106496478377
JILIN-1 05              
1 43023U 17074B   26194.86457821  .00005029  00000+0  15397-3 0  9997
2 43023  97.4884 301.3883 0006403 128.2844 231.8976 15.34272291478092
JILIN-1 06              
1 43024U 17074C   26194.84023177  .00003578  00000+0  11124-3 0  9990
2 43024  97.4809 298.3376 0008011 138.1847 222.0009 15.33986441477920
JILIN-1 07              
1 43159U 18008E   26194.82144042  .00005347  00000+0  15892-3 0  9992
2 43159  97.1764 214.0460 0006869 333.9945  26.0953 15.35150226469082
JILIN-1 08              
1 43160U 18008F   26194.84044773  .00003632  00000+0  11271-3 0  9998
2 43160  97.1800 213.3509 0005476 357.9141   2.2078 15.34000730469030
JILIN-1 09              
1 43943U 19005B   26194.83075852  .00002536  00000+0  11844-3 0  9994
2 43943  97.4749 289.5699 0002453  39.6247 320.5167 15.20734174413194
JILIN-1 10              
1 43946U 19005E   26194.81714147  .00003529  00000+0  14005-3 0  9997
2 43946  97.4800 293.6271 0008458 174.3122 185.8214 15.25997779413379
